OBJECT_NAME,OBJECT_ID,EPOCH,MEAN_MOTION,ECCENTRICITY,INCLINATION,RA_OF_ASC_NODE,ARG_OF_PERICENTER,MEAN_ANOMALY,EPHEMERIS_TYPE,CLASSIFICATION_TYPE,NORAD_CAT_ID,ELEMENT_SET_NO,REV_AT_EPOCH,BSTAR,MEAN_MOTION_DOT,MEAN_MOTION_DDOT
NETSAT-3,2020-068V,2026-07-14T22:46:43.327776,15.43602426,.0003766,97.8649,204.6225,212.3316,147.7700,0,U,46505,999,31996,.23832E-3,.10624E-3,0
NETSAT-1,2020-068W,2026-07-14T23:19:09.123168,15.35242687,.000244,97.8750,198.6436,263.8047,96.2917,0,U,46506,999,31956,.21237E-3,.7177E-4,0
NETSAT-2,2020-068X,2026-07-15T04:19:06.957696,15.47162587,.0002143,97.8610,206.6916,207.7449,152.3685,0,U,46507,999,32006,.27725E-3,.13982E-3,0
TIANQI-6,2020-076D,2026-07-15T05:20:42.122400,15.07352308,.0009655,34.9979,236.3790,55.1022,305.0595,0,U,46810,999,31281,.98566E-4,.1491E-4,0
KSM1-C,2020-081B,2026-07-15T05:04:23.491200,15.27178241,.0001261,36.8945,245.8745,101.3760,258.7132,0,U,46906,999,31345,.17842E-3,.4769E-4,0
KSM1-D,2020-081C,2026-07-15T04:26:54.857760,15.25100620,.0002719,36.8964,255.5918,143.4955,216.5980,0,U,46907,999,31337,.15097E-3,.377E-4,0
KSM1-A,2020-081H,2026-07-15T05:30:01.595232,15.26374055,.0003235,36.8955,248.3732,203.6376,156.4224,0,U,46912,999,31346,.1666E-3,.4338E-4,0
R2,2020-081J,2026-07-15T04:41:00.679200,15.25819860,.0007824,36.8967,248.7120,167.9758,192.1179,0,U,46913,999,31626,.15016E-3,.3836E-4,0
KSM1-B,2020-081K,2026-07-15T04:37:33.847968,15.24883822,.0004739,36.9014,256.2198,164.6462,195.4431,0,U,46914,999,31646,.15135E-3,.3755E-4,0
GONETS-M 20,2020-091A,2026-07-15T04:19:03.701280,12.42894296,.0022148,82.5057,285.0363,118.9791,241.3512,0,U,47227,999,25455,.29694E-4,.14E-6,0
GONETS-M 21,2020-091B,2026-07-15T05:37:32.592864,12.42887516,.0015878,82.4981,283.6923,131.8399,228.4039,0,U,47228,999,25455,.4426E-3,.71E-6,0
GONETS-M 22,2020-091C,2026-07-15T04:58:37.513632,12.42893907,.0023009,82.5039,284.6208,114.4179,245.9304,0,U,47229,999,25450,.92064E-3,.138E-5,0
CUBEL,2021-006AM,2026-07-15T03:16:57.050688,15.41999109,.0007871,97.2316,246.4702,82.4658,277.7483,0,U,47448,999,30406,.15774E-3,.6644E-4,0
ARKTIKA-M 1,2021-016A,2026-07-14T09:46:38.558208,2.00611590,.7297332,63.2662,53.6722,270.0591,14.4994,0,U,47719,999,3933,0,-.301E-5,0
STARLINK-2342,2021-021Z,2026-07-15T04:00:03.000096,15.93013839,.0008799,53.1512,6.6647,290.4675,191.0876,0,U,47883,999,604,.56572E-3,.200125E-2,.26259E-4
GRUS-1B,2021-022C,2026-07-15T05:12:50.515776,14.98776115,.0014458,97.5343,78.4805,217.3619,142.6600,0,U,47934,999,29009,.10445E-3,.1203E-4,0
UNISAT-7,2021-022P,2026-07-14T16:40:30.582624,15.41188781,.00079149,97.3864,100.9166,350.0640,10.0448,0,U,47945,999,29409,.20577503E-3,.846E-4,0
GLOBAL-9,2021-023G,2026-07-15T03:30:59.491296,15.47610662,.0003413,44.9819,93.2525,169.6006,190.4955,0,U,47971,999,29927,.2412E-3,.12373E-3,0
AII-BRAVO,2021-034C,2026-07-15T02:31:41.081376,15.03668473,.0006281,97.5597,250.3797,161.9417,198.2033,0,U,48270,999,28381,.21719E-3,.2915E-4,0
TYVAK-182A,2021-034D,2026-07-15T03:56:44.399328,15.06405855,.0004838,97.5715,254.5981,220.4475,139.6394,0,U,48271,999,28404,.17238E-3,.2479E-4,0
CSS (TIANHE),2021-035A,2026-07-15T03:37:13.255104,15.58088411,.0001842,41.4681,152.0989,294.2158,65.8488,0,U,48274,999,29753,.19607E-4,.1188E-4,0
TYVAK-0130,2021-041BF,2026-07-15T04:12:08.820576,15.27937383,.0008517,52.9941,256.0714,258.6372,101.3669,0,U,48606,999,28466,.16497E-3,.4211E-4,0
HAIYANG-2D,2021-043A,2026-07-15T04:45:33.050016,13.83373666,.0011592,65.9970,234.9624,265.9115,94.0629,0,U,48621,999,26042,.54593E-4,-.21E-6,0
2021-050D,2021-050D,2026-07-15T04:26:02.432832,15.23595128,.0006396,97.3336,271.5856,152.1678,207.9903,0,U,48843,999,28322,.11427E-3,.2666E-4,0
TYVAK-0173,2021-059P,2026-07-15T03:38:50.303040,14.81971393,.000726,96.0074,265.5572,300.1893,59.8605,0,U,48892,999,27238,.10425E-3,.795E-5,0
MANDRAKE 2 ABLE,2021-059AE,2026-07-15T02:13:11.320032,15.56068189,.000379,97.7021,28.0278,234.8146,125.2753,0,U,48907,999,28146,.1928E-3,.13338E-3,0
MANDRAKE 2 BAKER,2021-059AF,2026-07-15T01:37:32.709216,15.60965197,.0002724,97.6984,31.0732,219.1114,140.9946,0,U,48908,999,28164,.21312E-3,.17754E-3,0
PACE-1,2021-059AG,2026-07-15T02:29:03.040224,15.85283462,.0003289,97.6719,37.5079,180.3987,179.7281,0,U,48909,999,28221,.3843E-3,.91519E-3,0
YAM-3,2021-059AN,2026-07-15T04:05:46.656096,15.49147392,.000392,97.6989,24.9672,242.2281,117.8572,0,U,48915,999,28132,.12966E-3,.695E-4,0
