NETSAT-3                
1 46505U 20068V   26195.94911259  .00010624  00000+0  23832-3 0  9992
2 46505  97.8649 204.6225 0003766 212.3316 147.7700 15.43602426319963
NETSAT-1                
1 46506U 20068W   26195.97163337  .00007177  00000+0  21237-3 0  9998
2 46506  97.8750 198.6436 0002440 263.8047  96.2917 15.35242687319567
NETSAT-2                
1 46507U 20068X   26196.17994164  .00013982  00000+0  27725-3 0  9991
2 46507  97.8610 206.6916 0002143 207.7449 152.3685 15.47162587320065
TIANQI-6                
1 46810U 20076D   26196.22270975  .00001491  00000+0  98566-4 0  9994
2 46810  34.9979 236.3790 0009655  55.1022 305.0595 15.07352308312818
KSM1-C                  
1 46906U 20081B   26196.21138300  .00004769  00000+0  17842-3 0  9998
2 46906  36.8945 245.8745 0001261 101.3760 258.7132 15.27178241313457
KSM1-D                  
1 46907U 20081C   26196.18535715  .00003770  00000+0  15097-3 0  9997
2 46907  36.8964 255.5918 0002719 143.4955 216.5980 15.25100620313379
KSM1-A                  
1 46912U 20081H   26196.22918513  .00004338  00000+0  16660-3 0  9997
2 46912  36.8955 248.3732 0003235 203.6376 156.4224 15.26374055313468
R2                      
1 46913U 20081J   26196.19514675  .00003836  00000+0  15016-3 0  9991
2 46913  36.8967 248.7120 0007824 167.9758 192.1179 15.25819860316265
KSM1-B                  
1 46914U 20081K   26196.19275287  .00003755  00000+0  15135-3 0  9997
2 46914  36.9014 256.2198 0004739 164.6462 195.4431 15.24883822316464
GONETS-M 20             
1 47227U 20091A   26196.17990395  .00000014  00000+0  29694-4 0  9999
2 47227  82.5057 285.0363 0022148 118.9791 241.3512 12.42894296254557
GONETS-M 21             
1 47228U 20091B   26196.23440501  .00000071  00000+0  44260-3 0  9994
2 47228  82.4981 283.6923 0015878 131.8399 228.4039 12.42887516254556
GONETS-M 22             
1 47229U 20091C   26196.20737863  .00000138  00000+0  92064-3 0  9991
2 47229  82.5039 284.6208 0023009 114.4179 245.9304 12.42893907254502
CUBEL                   
1 47448U 21006AM  26196.13677142  .00006644  00000+0  15774-3 0  9997
2 47448  97.2316 246.4702 0007871  82.4658 277.7483 15.41999109304067
ARKTIKA-M 1             
1 47719U 21016A   26195.40739072 -.00000301  00000+0  00000+0 0  9996
2 47719  63.2662  53.6722 7297332 270.0591  14.4994  2.00611590 39330
STARLINK-2342           
1 47883U 21021Z   26196.16670139  .00200125  26259-4  56572-3 0  9999
2 47883  53.1512   6.6647 0008799 290.4675 191.0876 15.93013839  6048
GRUS-1B                 
1 47934U 21022C   26196.21725134  .00001203  00000+0  10445-3 0  9995
2 47934  97.5343  78.4805 0014458 217.3619 142.6600 14.98776115290091
UNISAT-7                
1 47945U 21022P   26195.69479841  .00008460  00000+0  20578-3 0  9999
2 47945  97.3864 100.9166 0007914 350.0640  10.0448 15.41188781294095
GLOBAL-9                
1 47971U 21023G   26196.14652189  .00012373  00000+0  24120-3 0  9993
2 47971  44.9819  93.2525 0003413 169.6006 190.4955 15.47610662299270
AII-BRAVO               
1 48270U 21034C   26196.10533659  .00002915  00000+0  21719-3 0  9996
2 48270  97.5597 250.3797 0006281 161.9417 198.2033 15.03668473283815
TYVAK-182A              
1 48271U 21034D   26196.16440277  .00002479  00000+0  17238-3 0  9992
2 48271  97.5715 254.5981 0004838 220.4475 139.6394 15.06405855284041
CSS (TIANHE)            
1 48274U 21035A   26196.15084786  .00001188  00000+0  19607-4 0  9993
2 48274  41.4681 152.0989 0001842 294.2158  65.8488 15.58088411297537
TYVAK-0130              
1 48606U 21041BF  26196.17510209  .00004211  00000+0  16497-3 0  9998
2 48606  52.9941 256.0714 0008517 258.6372 101.3669 15.27937383284665
HAIYANG-2D              
1 48621U 21043A   26196.19829919 -.00000021  00000+0  54593-4 0  9996
2 48621  65.9970 234.9624 0011592 265.9115  94.0629 13.83373666260426
2021-050D               
1 48843U 21050D   26196.18475038  .00002666  00000+0  11427-3 0  9992
2 48843  97.3336 271.5856 0006396 152.1678 207.9903 15.23595128283226
TYVAK-0173              
1 48892U 21059P   26196.15197110  .00000795  00000+0  10425-3 0  9992
2 48892  96.0074 265.5572 0007260 300.1893  59.8605 14.81971393272381
MANDRAKE 2 ABLE         
1 48907U 21059AE  26196.09249213  .00013338  00000+0  19280-3 0  9999
2 48907  97.7021  28.0278 0003790 234.8146 125.2753 15.56068189281465
MANDRAKE 2 BAKER        
1 48908U 21059AF  26196.06773969  .00017754  00000+0  21312-3 0  9992
2 48908  97.6984  31.0732 0002724 219.1114 140.9946 15.60965197281647
PACE-1                  
1 48909U 21059AG  26196.10350741  .00091519  00000+0  38430-3 0  9997
2 48909  97.6719  37.5079 0003289 180.3987 179.7281 15.85283462282214
YAM-3                   
1 48915U 21059AN  26196.17067889  .00006950  00000+0  12966-3 0  9990
2 48915  97.6989  24.9672 0003920 242.2281 117.8572 15.49147392281324
